LITUANICASAT-2          
1 42768U 17036D   17311.47759272  .00003322  00000-0  15531-3 0  9998
2 42768  97.4334   9.3640 0017648 120.3240 239.9743 15.20340961 20863
LEMUR-2-SHAINAJOHL      
1 42771U 17036G   17311.46721675  .00002453  00000-0  11556-3 0  9994
2 42771  97.4331   9.3771 0016784 119.3728 240.9186 15.20340542 20800
LEMUR-2-XUENITERENCE    
1 42772U 17036H   17311.46303992  .00002371  00000-0  11173-3 0  9997
2 42772  97.4331   9.3817 0016462 119.1274 241.1611 15.20377642 20806
LEMUR-2-LUCYBRYCE       
1 42773U 17036J   17312.11258960  .00004069  00000-0  18840-3 0  9999
2 42773  97.4331  10.0432 0016307 116.8237 243.4668 15.20562814 20905
LEMUR-2-KUNGFOO         
1 42774U 17036K   17311.85188716  .00003632  00000-0  16904-3 0  9995
2 42774  97.4332   9.7838 0016237 117.5098 242.7790 15.20454013 20850
AALTO-1                 
1 42775U 17036L   17312.11492363  .00001699  00000-0  81160-4 0  9990
2 42775  97.4331  10.0389 0015881 115.4643 244.8237 15.20301056 20906
URSA MAIOR              
1 42776U 17036M   17312.11113381  .00001936  00000-0  91898-4 0  9994
2 42776  97.4334  10.0490 0015738 115.7848 244.5013 15.20357114 20909
COMPASS 2               
1 42777U 17036N   17311.42004096  .00002721  00000-0  12592-3 0  9996
2 42777  97.4343   9.4617 0014713 121.9266 238.3402 15.20892254 20797
LEMUR-2-LYNSEY-SYMO     
1 42779U 17036Q   17311.39985405  .00002985  00000-0  13679-3 0  9995
2 42779  97.4337   9.4736 0014205 127.7777 232.4748 15.21166836 20789
LEMUR-2-LISASAURUS      
1 42780U 17036R   17311.46727148  .00002595  00000-0  11962-3 0  9993
2 42780  97.4334   9.5313 0014081 127.2756 232.9766 15.21076499 20807
LEMUR-2-SAM-AMELIA      
1 42781U 17036S   17311.39586682  .00002985  00000-0  13664-3 0  9996
2 42781  97.4334   9.4723 0014048 128.2413 232.0089 15.21201746 20787
LEMUR-2-MCPEAKE         
1 42782U 17036T   17311.45894660  .00002985  00000-0  13650-3 0  9997
2 42782  97.4336   9.5444 0013898 127.4005 232.8498 15.21236399 20796
DIAMOND RED             
1 42783U 17036U   17311.73020232  .00002313  00000-0  10736-3 0  9992
2 42783  97.4333   9.7884 0013926 127.9054 232.3443 15.20952930 20841
PEGASUS                 
1 42784U 17036V   17311.39672751  .00002135  00000-0  99088-4 0  9994
2 42784  97.4334   9.4720 0013850 129.2468 230.9999 15.21043755 20790
DIAMOND GREEN           
1 42785U 17036W   17311.40031079  .00001974  00000-0  92128-4 0  9997
2 42785  97.4336   9.4690 0013803 129.3847 230.8613 15.20946327 20865
DIAMOND BLUE            
1 42786U 17036X   17312.12225119  .00002201  00000-0  10238-3 0  9993
2 42786  97.4334  10.1845 0013657 127.4506 232.7975 15.20928071 20894
NUDTSAT                 
1 42787U 17036Y   17311.70931004  .00003924  00000-0  17784-3 0  9990
2 42787  97.4332   9.8186 0013542 128.5124 231.7328 15.21357403 20681
SUCHAI                  
1 42788U 17036Z   17311.45186374  .00002431  00000-0  11186-3 0  9997
2 42788  97.4331   9.5495 0013556 129.1700 231.0743 15.21210346 20872
SKCUBE                  
1 42789U 17036AA  17311.44910676  .00002366  00000-0  10892-3 0  9997
2 42789  97.4333   9.5513 0013312 129.0519 231.1904 15.21221362 20794
VZLUSAT-1               
1 42790U 17036AB  17311.43982859  .00002767  00000-0  12623-3 0  9999
2 42790  97.4329   9.5604 0013064 129.6059 230.6332 15.21391007 20794
ROBUSTA-1B              
1 42792U 17036AD  17311.83230408  .00002861  00000-0  13056-3 0  9997
2 42792  97.4330   9.9512 0012881 128.7526 231.4863 15.21359874 20867
CICERO 6                
1 42793U 17036AE  17311.16117296  .00001301  00000-0  61001-4 0  9995
2 42793  97.4329   9.3172 0011936 131.3472 228.8793 15.21413770 20837
D-SAT                   
1 42794U 17036AF  17312.15110508  .00000483  00000-0  48133-4 0  9996
2 42794  97.6252   9.7612 0126058 297.7250  61.1228 14.90693750 20790
TOKI                    
1 42820U 98067MU  17311.48245320  .00015279  00000-0  19663-3 0  9999
2 42820  51.6389  41.6208 0003238  41.2913 318.8324 15.59264778 19190
GHANASAT-1              
1 42821U 98067MV  17311.48907033  .00014530  00000-0  18845-3 0  9996
2 42821  51.6389  41.6653 0003213  45.6034 314.5221 15.59104952 19174
MAZAALAI (NUMSAT-1)     
1 42822U 98067MW  17312.19418045  .00028850  00000-0  36599-3 0  9992
2 42822  51.6389  38.1253 0003235  49.3463 310.7811 15.59191198 19264
BRAC ONNESHA            
1 42823U 98067MX  17312.06796900  .00025676  00000-0  32646-3 0  9990
2 42823  51.6394  38.7864 0006046  73.9590 286.2069 15.59187290 19240
NIGERIAEDUSAT-1         
1 42824U 98067MY  17311.81686694  .00025987  00000-0  33153-3 0  9990
2 42824  51.6402  40.1113 0005914  73.9524 286.2120 15.59091498 19191
LEMUR-2-GREENBERG       
1 42837U 17042N   17311.49939538  .00001165  00000-0  12259-3 0  9996
2 42837  97.6076 217.0719 0012254 210.7123 149.3380 14.91173834 17319
LEMUR-2-ANDIS           
1 42838U 17042P   17311.49775460  .00001221  00000-0  12819-3 0  9994
2 42838  97.6076 217.0733 0012348 210.6407 149.4092 14.91191540 17319
LEMUR-2-MONSON          
1 42839U 17042Q   17311.82651228  .00000987  00000-0  10454-3 0  9998
2 42839  97.6075 217.4048 0012187 208.3548 151.7009 14.91245500 17368
LEMUR-2-FURIAUS         
1 42840U 17042R   17312.15829765  .00001339  00000-0  13958-3 0  9994
2 42840  97.6075 217.7322 0012176 207.8027 152.2542 14.91331028 17406
LEMUR-2-PETERG          
1 42841U 17042S   17311.54420482  .00001095  00000-0  11479-3 0  9995
2 42841  97.6077 217.1640 0011818 208.0262 152.0322 14.91459528 17323
LEMUR-2-DEMBITZ         
1 42842U 17042T   17311.54248521  .00001057  00000-0  11094-3 0  9999
2 42842  97.6075 217.1641 0011812 208.5928 151.4644 14.91480620 17328
LEMUR-2-ZACHARY         
1 42845U 17042W   17312.19655196  .00001010  00000-0  10572-3 0  9993
2 42845  97.6025 217.7558 0012117 211.4868 148.5627 14.91678994 17415
FLOCK 2K-03             
1 42850U 17042AB  17311.51689217  .00007223  00000-0  21838-3 0  9994
2 42850  96.9938 214.3178 0010647 186.8755 173.2345 15.34443740 17614
FLOCK 2K-04             
1 42851U 17042AC  17311.71607123  .00012627  00000-0  38019-3 0  9996
2 42851  96.9939 214.5023 0010430 187.8630 172.2452 15.34418377 17649
FLOCK 2K-01             
1 42852U 17042AD  17311.71450147  .00015929  00000-0  47809-3 0  9994
2 42852  96.9938 214.5024 0010242 186.1602 173.9518 15.34470329 17648
FLOCK 2K-02             
1 42853U 17042AE  17311.28658026  .00002416  00000-0  77655-4 0  9993
2 42853  96.9950 214.0411 0011259 188.4569 171.6487 15.33109532 17570
FLOCK 2K-47             
1 42854U 17042AF  17311.71082510  .00009396  00000-0  28321-3 0  9990
2 42854  96.9940 214.5051 0010103 184.4711 175.6445 15.34464735 17643
FLOCK 2K-48             
1 42855U 17042AG  17312.16592223  .00018522  00000-0  55523-3 0  9993
2 42855  96.9939 214.9442 0010156 182.9929 177.1256 15.34480719 17717
FLOCK 2K-45             
1 42856U 17042AH  17311.70784947  .00013053  00000-0  39239-3 0  9999
2 42856  96.9939 214.5104 0010236 183.8871 176.2295 15.34464520 17641
FLOCK 2K-24             
1 42857U 17042AJ  17311.51088340  .00003074  00000-0  94150-4 0  9999
2 42857  96.9942 214.3256 0010284 182.3766 177.7431 15.34466523 17612
FLOCK 2K-46             
1 42858U 17042AK  17311.24890297  .00003910  00000-0  11919-3 0  9992
2 42858  96.9949 214.0853 0010265 184.7582 175.3566 15.34461339 17579
FLOCK 2K-23             
1 42859U 17042AL  17311.70403740  .00014471  00000-0  43421-3 0  9994
2 42859  96.9943 214.5181 0010439 183.9397 176.1766 15.34497435 17646
FLOCK 2K-21             
1 42860U 17042AM  17312.15869845  .00006848  00000-0  20685-3 0  9994
2 42860  96.9943 214.9523 0010555 181.3848 178.7369 15.34490960 17715
FLOCK 2K-22             
1 42861U 17042AN  17311.71507025  .00015765  00000-0  47586-3 0  9992
2 42861  96.9945 214.5069 0010450 181.2323 178.8897 15.34292095 17648
FLOCK 2K-07             
1 42862U 17042AP  17311.70053776  .00016047  00000-0  48172-3 0  9997
2 42862  96.9943 214.5228 0010764 183.6356 176.4812 15.34457411 17651
FLOCK 2K-08             
1 42863U 17042AQ  17311.43685860  .00009968  00000-0  30024-3 0  9994
2 42863  96.9941 214.2743 0010678 184.8614 175.2528 15.34463511 17607
FLOCK 2K-05             
1 42864U 17042AR  17312.22118376  .00006337  00000-0  19146-3 0  9995
2 42864  96.9943 215.0181 0010799 180.8084 179.3145 15.34510974 17725
FLOCK 2K-40             
1 42865U 17042AS  17311.89204335  .00014330  00000-0  42971-3 0  9993
2 42865  96.9942 214.7135 0010694 182.9754 177.1428 15.34517234 17671
FLOCK 2K-39             
1 42866U 17042AT  17311.69522259  .00008388  00000-0  25275-3 0  9994
2 42866  96.9944 214.5266 0010747 183.3309 176.7865 15.34499660 17646
FLOCK 2K-37             
1 42867U 17042AU  17312.21519991  .00003693  00000-0  11259-3 0  9994
2 42867  96.9940 215.0261 0009939 181.3000 178.8323 15.34493361 17724
FLOCK 2K-38             
1 42868U 17042AV  17311.23409096  .00006410  00000-0  19379-3 0  9991
2 42868  96.9944 214.1013 0010628 185.3919 174.7212 15.34485496 17579
FLOCK 2K-31             
1 42869U 17042AW  17311.68883141  .00014925  00000-0  44772-3 0  9993
2 42869  96.9939 214.5348 0010797 182.2796 177.8401 15.34496315 17649
FLOCK 2K-32             
1 42870U 17042AX  17311.68775007  .00016624  00000-0  49804-3 0  9995
2 42870  96.9940 214.5369 0010837 182.8913 177.2271 15.34514022 17643
FLOCK 2K-29             
1 42871U 17042AY  17311.68617979  .00011187  00000-0  33599-3 0  9992
2 42871  96.9942 214.5410 0010999 182.1548 177.9650 15.34522613 17642
FLOCK 2K-30             
1 42872U 17042AZ  17311.22850931  .00004836  00000-0  14634-3 0  9992
2 42872  96.9943 214.1073 0010889 184.9273 175.1866 15.34573318 17566
FLOCK 2K-44             
1 42873U 17042BA  17311.68318936  .00015752  00000-0  47121-3 0  9993
2 42873  96.9941 214.5450 0012287 172.0258 188.1184 15.34554617 17640
